[
    {
        "Altitude(m)": 605470.7981266414,
        "Argument of Periapsis(deg)": 0.0,
        "Eccentricity": 0.0,
        "Inclination(deg)": 60.0,
        "Latitude(deg)": 27.988232539528983,
        "Longitude(deg)": 82.26292726401638,
        "Mean Anomaly(deg)": 147.2727,
        "RAAN(deg)": 20.0,
        "Satellite Name": "Test1 97",
        "Satellite Number": 97,
        "Semi-Major Axis(m)": 6980739.136638005,
        "Time(s)": 0
    },
    {
        "Altitude(m)": 605395.8359803503,
        "Argument of Periapsis(deg)": 0.00010418945913296404,
        "Eccentricity": 0.0,
        "Inclination(deg)": 60.0,
        "Latitude(deg)": 27.473923469657233,
        "Longitude(deg)": 82.61611555296932,
        "Mean Anomaly(deg)": 147.8928061454618,
        "RAAN(deg)": 19.99957995086026,
        "Satellite Name": "Test1 97",
        "Satellite Number": 97,
        "Semi-Major Axis(m)": 6980739.136638005,
        "Time(s)": 10
    }
]